[{"OBJECT_NAME":"OBJECT V","OBJECT_ID":"2023-085V","EPOCH":"2026-03-09T21:44:00.165408","MEAN_MOTION":15.30745852,"ECCENTRICITY":0.00069081,"INCLINATION":97.4843,"RA_OF_ASC_NODE":179.3833,"ARG_OF_PERICENTER":71.0503,"MEAN_ANOMALY":289.1485,"EPHEMERIS_TYPE":0,"CLASSIFICATION_TYPE":"U","NORAD_CAT_ID":57023,"ELEMENT_SET_NO":999,"REV_AT_EPOCH":15149,"BSTAR":0.00067780507,"MEAN_MOTION_DOT":0.00020109,"MEAN_MOTION_DDOT":0},{"OBJECT_NAME":"STARLINK-35927","OBJECT_ID":"2025-271H","EPOCH":"2026-03-09T12:19:13.955808","MEAN_MOTION":15.30193227,"ECCENTRICITY":0.00012551,"INCLINATION":53.1598,"RA_OF_ASC_NODE":140.4708,"ARG_OF_PERICENTER":107.8236,"MEAN_ANOMALY":252.2902,"EPHEMERIS_TYPE":0,"CLASSIFICATION_TYPE":"U","NORAD_CAT_ID":66624,"ELEMENT_SET_NO":999,"REV_AT_EPOCH":1754,"BSTAR":0.0010929064,"MEAN_MOTION_DOT":0.00032143,"MEAN_MOTION_DDOT":0}]
